{
  "type": "FeatureCollection",
  "features": [
    {
      "type": "Feature",
      "properties": {
        "norad_id": 54741,
        "name": "GALAXY 35 (G-35)",
        "group": "intelsat",
        "lat": 0.018077237440306537,
        "lon": 170.1014913514795,
        "alt_km": 35788.063438024605,
        "timestamp": "2025-12-21T11:31:42.510452+00:00",
        "meta_object_name": "GALAXY 35 (G-35)",
        "meta_object_id": "2022-170A",
        "meta_epoch": "2025-12-21T04:16:38.932032",
        "meta_mean_motion": 1.00272061,
        "meta_eccentricity": 0.0002156,
        "meta_inclination": 0.0142,
        "meta_ra_of_asc_node": 64.6907,
        "meta_arg_of_pericenter": 208.3803,
        "meta_mean_anomaly": 148.0001,
        "meta_ephemeris_type": 0,
        "meta_classification_type": "U",
        "meta_norad_cat_id": 54741,
        "meta_element_set_no": 999,
        "meta_rev_at_epoch": 1110,
        "meta_bstar": 0,
        "meta_mean_motion_dot": -1.39e-06,
        "meta_mean_motion_ddot": 0,
        "tle_line1": "1 54741U 22170A   25355.17822838 -.00000139  00000+0  00000+0 0  9994",
        "tle_line2": "2 54741   0.0142  64.6907 0002156 208.3803 148.0001  1.00272061 11106"
      },
      "geometry": {
        "type": "Point",
        "coordinates": [
          170.1014913514795,
          0.018077237440306537
        ]
      }
    },
    {
      "type": "Feature",
      "properties": {
        "norad_id": 54742,
        "name": "GALAXY 36 (G-36)",
        "group": "intelsat",
        "lat": 0.015246839531808784,
        "lon": 174.21034239443813,
        "alt_km": 35788.587728617975,
        "timestamp": "2025-12-21T11:31:42.510465+00:00",
        "meta_object_name": "GALAXY 36 (G-36)",
        "meta_object_id": "2022-170B",
        "meta_epoch": "2025-12-21T02:30:10.611072",
        "meta_mean_motion": 1.00269248,
        "meta_eccentricity": 4.23e-05,
        "meta_inclination": 0.015,
        "meta_ra_of_asc_node": 27.8559,
        "meta_arg_of_pericenter": 324.0859,
        "meta_mean_anomaly": 46.527,
        "meta_ephemeris_type": 0,
        "meta_classification_type": "U",
        "meta_norad_cat_id": 54742,
        "meta_element_set_no": 999,
        "meta_rev_at_epoch": 1098,
        "meta_bstar": 0,
        "meta_mean_motion_dot": 0,
        "meta_mean_motion_ddot": 0,
        "tle_line1": "1 54742U 22170B   25355.10428948  .00000000  00000+0  00000+0 0  9998",
        "tle_line2": "2 54742   0.0150  27.8559 0000423 324.0859  46.5270  1.00269248 10980"
      },
      "geometry": {
        "type": "Point",
        "coordinates": [
          174.21034239443813,
          0.015246839531808784
        ]
      }
    },
    {
      "type": "Feature",
      "properties": {
        "norad_id": 57493,
        "name": "GALAXY 37 (G-37)",
        "group": "intelsat",
        "lat": 0.030842640486749732,
        "lon": 136.1960512609589,
        "alt_km": 35792.14805391893,
        "timestamp": "2025-12-21T11:31:42.510476+00:00",
        "meta_object_name": "GALAXY 37 (G-37)",
        "meta_object_id": "2023-112A",
        "meta_epoch": "2025-12-21T00:36:36.490176",
        "meta_mean_motion": 1.00271014,
        "meta_eccentricity": 0.0001924,
        "meta_inclination": 0.0148,
        "meta_ra_of_asc_node": 5.4291,
        "meta_arg_of_pericenter": 266.9843,
        "meta_mean_anomaly": 59.584,
        "meta_ephemeris_type": 0,
        "meta_classification_type": "U",
        "meta_norad_cat_id": 57493,
        "meta_element_set_no": 999,
        "meta_rev_at_epoch": 875,
        "meta_bstar": 0,
        "meta_mean_motion_dot": 7.1e-07,
        "meta_mean_motion_ddot": 0,
        "tle_line1": "1 57493U 23112A   25355.02542234  .00000071  00000+0  00000+0 0  9995",
        "tle_line2": "2 57493   0.0148   5.4291 0001924 266.9843  59.5840  1.00271014  8755"
      },
      "geometry": {
        "type": "Point",
        "coordinates": [
          136.1960512609589,
          0.030842640486749732
        ]
      }
    }
  ]
}